[{"OBJECT_NAME":"STARLINK-3825","OBJECT_ID":"2022-049AD","EPOCH":"2026-03-09T23:06:50.787648","MEAN_MOTION":15.08840024,"ECCENTRICITY":0.00013472,"INCLINATION":53.2173,"RA_OF_ASC_NODE":57.8901,"ARG_OF_PERICENTER":86.1487,"MEAN_ANOMALY":273.966,"EPHEMERIS_TYPE":0,"CLASSIFICATION_TYPE":"U","NORAD_CAT_ID":52478,"ELEMENT_SET_NO":999,"REV_AT_EPOCH":21353,"BSTAR":3.8105066e-5,"MEAN_MOTION_DOT":3.19e-6,"MEAN_MOTION_DDOT":0},{"OBJECT_NAME":"NEONSAT-1A","OBJECT_ID":"2026-019A","EPOCH":"2026-03-09T21:53:31.879392","MEAN_MOTION":15.0780294,"ECCENTRICITY":0.00137261,"INCLINATION":97.411,"RA_OF_ASC_NODE":192.4819,"ARG_OF_PERICENTER":167.4713,"MEAN_ANOMALY":192.686,"EPHEMERIS_TYPE":0,"CLASSIFICATION_TYPE":"U","NORAD_CAT_ID":67614,"ELEMENT_SET_NO":999,"REV_AT_EPOCH":585,"BSTAR":0.00027109929,"MEAN_MOTION_DOT":4.096e-5,"MEAN_MOTION_DDOT":0}]
